{
    "links": {
        "self": "http://www.neowsapp.com/rest/v1/neo/3366886?api_key=iIulBulltgU6a56xZRHN4H3l9WmuAYTsLGpBGhQ2"
    },
    "id": "3366886",
    "neo_reference_id": "3366886",
    "name": "(2007 BC8)",
    "designation": "2007 BC8",
    "nasa_jpl_url": "http://ssd.jpl.nasa.gov/sbdb.cgi?sstr=3366886",
    "absolute_magnitude_h": 22.5,
    "estimated_diameter": {
        "kilometers": {
            "estimated_diameter_min": 0.0840533402,
            "estimated_diameter_max": 0.1879489824
        },
        "meters": {
            "estimated_diameter_min": 84.0533402073,
            "estimated_diameter_max": 187.9489824394
        },
        "miles": {
            "estimated_diameter_min": 0.0522283081,
            "estimated_diameter_max": 0.1167860472
        },
        "feet": {
            "estimated_diameter_min": 275.7655606856,
            "estimated_diameter_max": 616.6305395464
        }
    },
    "is_potentially_hazardous_asteroid": false,
    "close_approach_data": [
        {
            "close_approach_date": "2004-04-12",
            "close_approach_date_full": "2004-Apr-12 02:31",
            "epoch_date_close_approach": 1081737060000,
            "relative_velocity": {
                "kilometers_per_second": "13.5607115817",
                "kilometers_per_hour": "48818.5616940466",
                "miles_per_hour": "30333.9557370591"
            },
            "miss_distance": {
                "astronomical": "0.2491975842",
                "lunar": "96.9378602538",
                "kilometers": "37279427.805465654",
                "miles": "23164362.2925638652"
            },
            "orbiting_body": "Earth"
        },
        {
            "close_approach_date": "2007-02-08",
            "close_approach_date_full": "2007-Feb-08 02:47",
            "epoch_date_close_approach": 1170902820000,
            "relative_velocity": {
                "kilometers_per_second": "7.8058886253",
                "kilometers_per_hour": "28101.1990509879",
                "miles_per_hour": "17460.9922658763"
            },
            "miss_distance": {
                "astronomical": "0.0872813317",
                "lunar": "33.9524380313",
                "kilometers": "13057101.313083479",
                "miles": "8113306.5369268502"
            },
            "orbiting_body": "Earth"
        },
        {
            "close_approach_date": "2010-01-05",
            "close_approach_date_full": "2010-Jan-05 10:31",
            "epoch_date_close_approach": 1262687460000,
            "relative_velocity": {
                "kilometers_per_second": "21.0274679767",
                "kilometers_per_hour": "75698.884716268",
                "miles_per_hour": "47036.3431171722"
            },
            "miss_distance": {
                "astronomical": "0.4964573402",
                "lunar": "193.1219053378",
                "kilometers": "74268960.639785374",
                "miles": "46148592.2029072012"
            },
            "orbiting_body": "Earth"
        }
    ],
    "orbital_data": {
        "orbit_id": "15",
        "orbit_determination_date": "2017-04-06 09:07:10",
        "first_observation_date": "2007-01-23",
        "last_observation_date": "2007-03-13",
        "data_arc_in_days": 49,
        "observations_used": 65,
        "orbit_uncertainty": "7",
        "minimum_orbit_intersection": ".0381857",
        "jupiter_tisserand_invariant": "3.626",
        "epoch_osculation": "2459000.5",
        "eccentricity": ".4999571479229205",
        "semi_major_axis": "2.048736090968335",
        "inclination": "2.174846758353996",
        "ascending_node_longitude": "10.85797414150767",
        "orbital_period": "1071.09367335189",
        "perihelion_distance": "1.024455838081053",
        "perihelion_argument": "147.809303904027",
        "aphelion_distance": "3.073016343855616",
        "perihelion_time": "2459510.473463753843",
        "mean_anomaly": "188.5953399604594",
        "mean_motion": ".3361050568746362",
        "equinox": "J2000",
        "orbit_class": {
            "orbit_class_type": "AMO",
            "orbit_class_description": "Near-Earth asteroid orbits similar to that of 1221 Amor",
            "orbit_class_range": "1.017 AU < q (perihelion) < 1.3 AU"
        }
    },
    "is_sentry_object": false
}